CCSDS_OMM_VERS,COMMENT,CREATION_DATE,ORIGINATOR,OBJECT_NAME,OBJECT_ID,CENTER_NAME,REF_FRAME,TIME_SYSTEM,MEAN_ELEMENT_THEORY,EPOCH,MEAN_MOTION,ECCENTRICITY,INCLINATION,RA_OF_ASC_NODE,ARG_OF_PERICENTER,MEAN_ANOMALY,EPHEMERIS_TYPE,CLASSIFICATION_TYPE,NORAD_CAT_ID,ELEMENT_SET_NO,REV_AT_EPOCH,BSTAR,MEAN_MOTION_DOT,MEAN_MOTION_DDOT,SEMIMAJOR_AXIS,PERIOD,APOAPSIS,PERIAPSIS,OBJECT_TYPE,RCS_SIZE,COUNTRY_CODE,LAUNCH_DATE,SITE,DECAY_DATE,FILE,GP_ID,TLE_LINE0,TLE_LINE1,TLE_LINE2
2,GENERATED VIA SPACE-TRACK.ORG API,2018-06-23T06:00:57,18 SPCS,GALILEO-FM3,2012-055A,EARTH,TEME,UTC,SGP4,2018-06-22T09:22:07.316544,1.7047379,0.0005466,54.9105,181.7957,259.3576,100.6123,0,U,38857,999,3543,0.0,7.6e-07,0,29600.344,844.704,23238.388,23206.029,PAYLOAD,LARGE,ESA,2012-10-12,FRGUI,,2299923,121248403,0 GALILEO-FM3,1 38857U 12055A   18173.39036246 +.00000076 +00000-0 +00000-0 0  9990,2 38857 054.9105 181.7957 0005466 259.3576 100.6123 01.70473790035439
2,GENERATED VIA SPACE-TRACK.ORG API,2018-06-24T05:26:01,18 SPCS,GALILEO-FM3,2012-055A,EARTH,TEME,UTC,SGP4,2018-06-23T13:31:29.012736,1.70473813,0.0005465,54.9106,181.7634,259.4951,100.4752,0,U,38857,999,3545,0.0,7.6e-07,0,29600.341,844.704,23238.383,23206.03,PAYLOAD,LARGE,ESA,2012-10-12,FRGUI,,2300238,121274302,0 GALILEO-FM3,1 38857U 12055A   18174.56353024 +.00000076 +00000-0 +00000-0 0  9996,2 38857 054.9106 181.7634 0005465 259.4951 100.4752 01.70473813035453
2,GENERATED VIA SPACE-TRACK.ORG API,2018-06-25T21:41:04,18 SPCS,GALILEO-FM3,2012-055A,EARTH,TEME,UTC,SGP4,2018-06-25T07:45:30.829536,1.70473843,0.0005454,54.9108,181.7148,259.6493,100.3167,0,U,38857,999,3548,0.0,7e-07,0,29600.338,844.704,23238.347,23206.059,PAYLOAD,LARGE,ESA,2012-10-12,FRGUI,,2300933,121319006,0 GALILEO-FM3,1 38857U 12055A   18176.32327349 +.00000070 +00000-0 +00000-0 0  9997,2 38857 054.9108 181.7148 0005454 259.6493 100.3167 01.70473843035481
2,GENERATED VIA SPACE-TRACK.ORG API,2018-06-27T21:37:39,18 SPCS,GALILEO-FM3,2012-055A,EARTH,TEME,UTC,SGP4,2018-06-27T01:59:31.989696,1.7047387,0.0005437,54.911,181.6663,259.7097,100.2473,0,U,38857,999,3551,0.0,6.4e-07,0,29600.335,844.704,23238.293,23206.106,PAYLOAD,LARGE,ESA,2012-10-12,FRGUI,,2301698,121374538,0 GALILEO-FM3,1 38857U 12055A   18178.08300914 +.00000064 +00000-0 +00000-0 0  9994,2 38857 054.9110 181.6663 0005437 259.7097 100.2473 01.70473870035510
2,GENERATED VIA SPACE-TRACK.ORG API,2018-06-28T06:22:19,18 SPCS,GALILEO-FM3,2012-055A,EARTH,TEME,UTC,SGP4,2018-06-27T16:04:12.290880,1.70473873,0.0005437,54.911,181.6501,259.7079,100.2456,0,U,38857,999,3552,0.0,6.3e-07,0,29600.334,844.704,23238.293,23206.106,PAYLOAD,LARGE,ESA,2012-10-12,FRGUI,,2301835,121385751,0 GALILEO-FM3,1 38857U 12055A   18178.66958670 +.00000063 +00000-0 +00000-0 0  9995,2 38857 054.9110 181.6501 0005437 259.7079 100.2456 01.70473873035526
2,GENERATED VIA SPACE-TRACK.ORG API,2018-06-30T05:40:54,18 SPCS,GALILEO-FM3,2012-055A,EARTH,TEME,UTC,SGP4,2018-06-29T10:18:13.332672,1.7047389,0.0005434,54.9112,181.6017,259.8013,100.1423,0,U,38857,999,3555,0.0,6.2e-07,0,29600.332,844.704,23238.282,23206.112,PAYLOAD,LARGE,ESA,2012-10-12,FRGUI,,2302463,121440053,0 GALILEO-FM3,1 38857U 12055A   18180.42932098 +.00000062 +00000-0 +00000-0 0  9997,2 38857 054.9112 181.6017 0005434 259.8013 100.1423 01.70473890035551
2,GENERATED VIA SPACE-TRACK.ORG API,2018-06-30T21:26:04,18 SPCS,GALILEO-FM3,2012-055A,EARTH,TEME,UTC,SGP4,2018-06-30T00:22:53.745312,1.70473894,0.0005435,54.9113,181.5855,259.8301,100.1108,0,U,38857,999,3556,0.0,6.3e-07,0,29600.332,844.704,23238.285,23206.109,PAYLOAD,LARGE,ESA,2012-10-12,FRGUI,,2302722,121456815,0 GALILEO-FM3,1 38857U 12055A   18181.01589983 +.00000063 +00000-0 +00000-0 0  9995,2 38857 054.9113 181.5855 0005435 259.8301 100.1108 01.70473894035567
2,GENERATED VIA SPACE-TRACK.ORG API,2018-07-02T22:11:15,18 SPCS,GALILEO-FM3,2012-055A,EARTH,TEME,UTC,SGP4,2018-07-02T08:41:36.290976,1.70473891,0.0005431,54.9114,181.5208,260.0458,99.8904,0,U,38857,999,3560,0.0,7e-07,0,29600.332,844.704,23238.273,23206.121,PAYLOAD,LARGE,ESA,2012-10-12,FRGUI,,2303736,121508551,0 GALILEO-FM3,1 38857U 12055A   18183.36222559 +.00000070 +00000-0 +00000-0 0  9996,2 38857 054.9114 181.5208 0005431 260.0458 099.8904 01.70473891035603
2,GENERATED VIA SPACE-TRACK.ORG API,2018-07-03T22:09:22,18 SPCS,GALILEO-FM3,2012-055A,EARTH,TEME,UTC,SGP4,2018-07-02T22:46:17.158080,1.70473886,0.0005427,54.9115,181.5046,260.0903,99.8464,0,U,38857,999,3561,0.0,7.2e-07,0,29600.333,844.704,23238.262,23206.134,PAYLOAD,LARGE,ESA,2012-10-12,FRGUI,,2304056,121533955,0 GALILEO-FM3,1 38857U 12055A   18183.94880970 +.00000072 +00000-0 +00000-0 0  9999,2 38857 054.9115 181.5046 0005427 260.0903 099.8464 01.70473886035610
2,GENERATED VIA SPACE-TRACK.ORG API,2018-07-05T08:02:21,18 SPCS,GALILEO-FM3,2012-055A,EARTH,TEME,UTC,SGP4,2018-07-04T02:55:39.145440,1.7047386,0.0005407,54.9117,181.4722,260.2255,99.7139,0,U,38857,999,3563,0.0,7.8e-07,0,29600.336,844.704,23238.206,23206.196,PAYLOAD,LARGE,ESA,2012-10-12,FRGUI,,2304631,121573256,0 GALILEO-FM3,1 38857U 12055A   18185.12198085 +.00000078 +00000-0 +00000-0 0  9996,2 38857 054.9117 181.4722 0005407 260.2255 099.7139 01.70473860035634
2,GENERATED VIA SPACE-TRACK.ORG API,2018-07-05T21:38:36,18 SPCS,GALILEO-FM3,2012-055A,EARTH,TEME,UTC,SGP4,2018-07-04T17:00:20.183616,1.70473855,0.0005405,54.9117,181.456,260.2602,99.681,0,U,38857,999,3564,0.0,8.1e-07,0,29600.336,844.704,23238.2,23206.202,PAYLOAD,LARGE,ESA,2012-10-12,FRGUI,,2304841,121588103,0 GALILEO-FM3,1 38857U 12055A   18185.70856694 +.00000081 +00000-0 +00000-0 0  9991,2 38857 054.9117 181.4560 0005405 260.2602 099.6810 01.70473855035648
2,GENERATED VIA SPACE-TRACK.ORG API,2018-07-06T21:37:48,18 SPCS,GALILEO-FM3,2012-055A,EARTH,TEME,UTC,SGP4,2018-07-05T21:09:42.391296,1.70473821,0.0005386,54.9118,181.4236,260.3542,99.5911,0,U,38857,999,3566,0.0,8.8e-07,0,29600.34,844.704,23238.148,23206.263,PAYLOAD,LARGE,ESA,2012-10-12,FRGUI,,2305129,121610751,0 GALILEO-FM3,1 38857U 12055A   18186.88174064 +.00000088 +00000-0 +00000-0 0  9992,2 38857 054.9118 181.4236 0005386 260.3542 099.5911 01.70473821035667
2,GENERATED VIA SPACE-TRACK.ORG API,2018-07-07T23:52:35,18 SPCS,GALILEO-FM3,2012-055A,EARTH,TEME,UTC,SGP4,2018-07-07T01:19:04.426176,1.70473798,0.0005382,54.9119,181.3912,260.4513,99.4969,0,U,38857,999,3568,0.0,9.2e-07,0,29600.343,844.704,23238.139,23206.277,PAYLOAD,LARGE,ESA,2012-10-12,FRGUI,,2305552,121636377,0 GALILEO-FM3,1 38857U 12055A   18188.05491234 +.00000092 +00000-0 +00000-0 0  9999,2 38857 054.9119 181.3912 0005382 260.4513 099.4969 01.70473798035680
2,GENERATED VIA SPACE-TRACK.ORG API,2018-07-09T22:33:44,18 SPCS,GALILEO-FM3,2012-055A,EARTH,TEME,UTC,SGP4,2018-07-09T09:37:47.228448,1.70473748,0.0005368,54.912,181.3265,260.7396,99.2055,0,U,38857,999,3572,0.0,9.1e-07,0,29600.349,844.704,23238.103,23206.324,PAYLOAD,LARGE,ESA,2012-10-12,FRGUI,,2306341,121678054,0 GALILEO-FM3,1 38857U 12055A   18190.40124107  .00000091  00000-0  00000+0 0  9991,2 38857  54.9120 181.3265 0005368 260.7396  99.2055  1.70473748 35723
2,GENERATED VIA SPACE-TRACK.ORG API,2018-07-10T21:46:46,18 SPCS,GALILEO-FM3,2012-055A,EARTH,TEME,UTC,SGP4,2018-07-09T23:42:27.603072,1.70473739,0.0005359,54.912,181.3102,260.8122,99.1299,0,U,38857,999,3573,0.0,8.8e-07,0,29600.35,844.704,23238.078,23206.352,PAYLOAD,LARGE,ESA,2012-10-12,FRGUI,,2306784,121700786,0 GALILEO-FM3,1 38857U 12055A   18190.98781948 +.00000088 +00000-0 +00000-0 0  9993,2 38857 054.9120 181.3102 0005359 260.8122 099.1299 01.70473739035731
2,GENERATED VIA SPACE-TRACK.ORG API,2018-07-12T06:40:06,18 SPCS,GALILEO-FM3,2012-055A,EARTH,TEME,UTC,SGP4,2018-07-11T17:56:28.166208,1.70473718,0.0005332,54.9121,181.2616,261.0272,98.9015,0,U,38857,999,3576,0.0,7.3e-07,0,29600.352,844.704,23238.0,23206.434,PAYLOAD,LARGE,ESA,2012-10-12,FRGUI,,2307347,121734090,0 GALILEO-FM3,1 38857U 12055A   18192.74754822  .00000073  00000-0  00000+0 0  9993,2 38857  54.9121 181.2616 0005332 261.0272  98.9015  1.70473718 35764
2,GENERATED VIA SPACE-TRACK.ORG API,2018-07-14T14:44:01,18 SPCS,GALILEO-FM3,2012-055A,EARTH,TEME,UTC,SGP4,2018-07-14T02:15:08.994240,1.70473706,0.0005288,54.9123,181.1968,261.2753,98.636,0,U,38857,999,3580,0.0,5.2e-07,0,29600.354,844.705,23237.871,23206.566,PAYLOAD,LARGE,ESA,2012-10-12,FRGUI,,2308361,121783801,0 GALILEO-FM3,1 38857U 12055A   18195.09385410  .00000052  00000-0  00000+0 0  9994,2 38857  54.9123 181.1968 0005288 261.2753  98.6360  1.70473706 35803
2,GENERATED VIA SPACE-TRACK.ORG API,2018-07-17T06:38:02,18 SPCS,GALILEO-FM3,2012-055A,EARTH,TEME,UTC,SGP4,2018-07-17T00:38:32.774208,1.70473724,0.0005237,54.9127,181.116,261.5761,98.3327,0,U,38857,999,3585,0.0,4.9e-07,0,29600.352,844.704,23237.718,23206.715,PAYLOAD,LARGE,ESA,2012-10-12,FRGUI,,2309667,121857645,0 GALILEO-FM3,1 38857U 12055A   18198.02676822  .00000049  00000-0  00000+0 0  9996,2 38857  54.9127 181.1160 0005237 261.5761  98.3327  1.70473724 35852
2,GENERATED VIA SPACE-TRACK.ORG API,2018-07-17T22:46:37,18 SPCS,GALILEO-FM3,2012-055A,EARTH,TEME,UTC,SGP4,2018-07-17T00:38:32.781120,1.70473728,0.0005233,54.9127,181.1159,261.5671,98.3418,0,U,38857,999,3585,0.0,4.9e-07,0,29600.351,844.704,23237.706,23206.726,PAYLOAD,LARGE,ESA,2012-10-12,FRGUI,,2309991,121873229,0 GALILEO-FM3,1 38857U 12055A   18198.02676830 +.00000049 +00000-0 +00000-0 0  9996,2 38857 054.9127 181.1159 0005233 261.5671 098.3418 01.70473728035851
2,GENERATED VIA SPACE-TRACK.ORG API,2018-07-22T17:10:43,18 SPCS,GALILEO-FM3,2012-055A,EARTH,TEME,UTC,SGP4,2018-07-21T03:11:19.950720,1.70473806,0.0005169,54.9128,181.0026,261.9328,97.9862,0,U,38857,999,3592,0.0,5.1e-07,0,29600.342,844.704,23237.507,23206.907,PAYLOAD,LARGE,ESA,2012-10-12,FRGUI,,2312317,122006660,0 GALILEO-FM3,1 38857U 12055A   18202.13286980 +.00000051 +00000-0 +00000-0 0  9990,2 38857 054.9128 181.0026 0005169 261.9328 097.9862 01.70473806035928
